{
    "links": {
        "self": "http://www.neowsapp.com/rest/v1/neo/3836207?api_key=iIulBulltgU6a56xZRHN4H3l9WmuAYTsLGpBGhQ2"
    },
    "id": "3836207",
    "neo_reference_id": "3836207",
    "name": "(2018 VL8)",
    "designation": "2018 VL8",
    "nasa_jpl_url": "http://ssd.jpl.nasa.gov/sbdb.cgi?sstr=3836207",
    "absolute_magnitude_h": 22.8,
    "estimated_diameter": {
        "kilometers": {
            "estimated_diameter_min": 0.0732073989,
            "estimated_diameter_max": 0.1636967205
        },
        "meters": {
            "estimated_diameter_min": 73.2073989347,
            "estimated_diameter_max": 163.696720474
        },
        "miles": {
            "estimated_diameter_min": 0.0454889547,
            "estimated_diameter_max": 0.1017163949
        },
        "feet": {
            "estimated_diameter_min": 240.181762721,
            "estimated_diameter_max": 537.0627483999
        }
    },
    "is_potentially_hazardous_asteroid": false,
    "close_approach_data": [
        {
            "close_approach_date": "2018-11-27",
            "close_approach_date_full": "2018-Nov-27 20:00",
            "epoch_date_close_approach": 1543348800000,
            "relative_velocity": {
                "kilometers_per_second": "17.4037184819",
                "kilometers_per_hour": "62653.3865348234",
                "miles_per_hour": "38930.3778721518"
            },
            "miss_distance": {
                "astronomical": "0.103272221",
                "lunar": "40.172893969",
                "kilometers": "15449304.29176927",
                "miles": "9599752.540465126"
            },
            "orbiting_body": "Earth"
        }
    ],
    "orbital_data": {
        "orbit_id": "7",
        "orbit_determination_date": "2018-11-20 06:29:35",
        "first_observation_date": "2018-11-10",
        "last_observation_date": "2018-11-20",
        "data_arc_in_days": 10,
        "observations_used": 51,
        "orbit_uncertainty": "8",
        "minimum_orbit_intersection": ".0129066",
        "jupiter_tisserand_invariant": "3.023",
        "epoch_osculation": "2458436.5",
        "eccentricity": ".651919252864256",
        "semi_major_axis": "2.520303992398897",
        "inclination": "24.76653555814498",
        "ascending_node_longitude": "237.3709455103557",
        "orbital_period": "1461.429326079188",
        "perihelion_distance": ".8772692966834066",
        "perihelion_argument": "221.2798648146635",
        "aphelion_distance": "4.163338688114388",
        "perihelion_time": "2458477.268442747224",
        "mean_anomaly": "349.9573389372334",
        "mean_motion": ".2463341836487092",
        "equinox": "J2000",
        "orbit_class": {
            "orbit_class_type": "APO",
            "orbit_class_description": "Near-Earth asteroid orbits which cross the Earth’s orbit similar to that of 1862 Apollo",
            "orbit_class_range": "a (semi-major axis) > 1.0 AU; q (perihelion) < 1.017 AU"
        }
    },
    "is_sentry_object": false
}